[{"OBJECT_NAME":"YUNHAI-2 01C","OBJECT_ID":"2018-112C","EPOCH":"2026-03-09T23:40:43.339008","MEAN_MOTION":14.28951205,"ECCENTRICITY":5.385e-5,"INCLINATION":50.0116,"RA_OF_ASC_NODE":48.4892,"ARG_OF_PERICENTER":172.1642,"MEAN_ANOMALY":187.9282,"EPHEMERIS_TYPE":0,"CLASSIFICATION_TYPE":"U","NORAD_CAT_ID":43911,"ELEMENT_SET_NO":999,"REV_AT_EPOCH":37760,"BSTAR":8.3785899e-5,"MEAN_MOTION_DOT":5.2e-7,"MEAN_MOTION_DDOT":0},{"OBJECT_NAME":"DMSP 5D-2 F13 DEB","OBJECT_ID":"1995-015DP","EPOCH":"2026-03-09T21:57:25.158528","MEAN_MOTION":14.25781353,"ECCENTRICITY":0.00388841,"INCLINATION":98.9491,"RA_OF_ASC_NODE":63.399,"ARG_OF_PERICENTER":315.0942,"MEAN_ANOMALY":44.7094,"EPHEMERIS_TYPE":0,"CLASSIFICATION_TYPE":"U","NORAD_CAT_ID":40527,"ELEMENT_SET_NO":999,"REV_AT_EPOCH":56448,"BSTAR":0.0021572944,"MEAN_MOTION_DOT":5.124e-5,"MEAN_MOTION_DDOT":0}]
